#dP2024  5 17  0  0  0.00000000      96 __u+U IGS20 FIT  IAC
## 2314 432000.00000000   900.00000000 60447 0.0000000000000
+   54   G02G03G04G05G06G07G08G09G10G11G12G13G14G15G16G17G18
+        G19G20G21G22G23G24G25G26G27G28G29G30G31G32R01R02R03
+        R04R05R07R08R09R11R12R13R14R15R16R17R18R19R20R21R22
+        R24R25R26  0  0  0  0  0  0  0  0  0  0  0  0  0  0
+          0  0  0  0  0  0  0  0  0  0  0  0  0  0  0  0  0
++         8  5  6  7  7  7  6  6  7  5  6  6  7  6  7  6  5
++         6  7  7  7  6  7  5  7  6  6  7  5  6  6  6  6  5
++         6  5  7  7 11  5  6  7  5  7  7  6  6  5  6  5  5
++         7  6  7  0  0  0  0  0  0  0  0  0  0  0  0  0  0
++         0  0  0  0  0  0  0  0  0  0  0  0  0  0  0  0  0
%c M  cc GPS ccc cccc cccc cccc cccc ccccc ccccc ccccc ccccc
%c cc cc ccc ccc cccc cccc cccc cccc ccccc ccccc ccccc ccccc
%f  0.0000000  0.000000000  0.00000000000  0.000000000000000
%f  0.0000000  0.000000000  0.00000000000  0.000000000000000
%i    0    0    0    0      0      0      0      0         0
%i    0    0    0    0      0      0      0      0         0
/* INFORMATION & ANALYSIS CENTER (IAC)      ULTRA-RAPID DATA
/* S/V CLOCKS ARE ALIGNED TO GNSS TIME                      
/* G:C1WC2W R:C1PC2P E:C1XC5X C:C2IC6I J:C1CC2S             
/* PCV:IGS20_2290 OL/AL:FES2004  NONE     YN ORB:CoN CLK:CoN
*  2024 05 17 20  0  0.00000000
PG02  11213.843082  13414.810724 -19602.338497   -434.444863
PG03  12636.818062  23336.865805   2037.668903    368.347501
PG04   5153.320814  16543.970794  20110.410494    363.253949
PG05  -3416.298538 -23362.979363  11894.181203   -173.061183
PG06  23074.251230  -5823.617059  11970.992051    267.996090
PG07  25322.871981   6521.465632   6419.944185   -130.980288
PG08  -2607.897922  22408.901427 -13777.777542    183.444555
PG09  14959.131746   4557.286970  21394.112049    200.036930
PG10 -14839.015110   2443.857567 -21718.153333    -24.871529
PG11  11929.876959 -12552.240909  20146.858462   -664.532999
PG12 -10017.542663 -24623.843285    248.154146   -506.211055
PG13  12152.974990 -21962.348327  -8517.324303    651.242073
PG14  16884.347713   1560.051233 -20457.104963    403.159617
PG15   -480.295198 -22813.786035 -13924.820956    160.104022
PG16  -2155.641329  21987.770162  14072.978568   -289.051625
PG17  19816.287090  -8587.072353 -15148.613316    705.446969
PG18 -25551.184615  -5790.984608   4974.268760   -612.076209
PG19  20123.917915 -15039.849379  -8162.424390    483.448867
PG20   4118.661056 -17796.130179  19395.265257    376.225663
PG21   6015.552036  14597.183065 -21053.399640    121.035256
PG22  13189.276006  -7404.225624 -21429.637932    -14.978113
PG23 -17953.481293 -10051.450609 -16882.532307    227.875622
PG24  -8983.819726 -14992.085301 -20516.234800   -470.490978
PG25 -16294.944573 -19331.927574   8214.449218    495.887648
PG26 -10794.337933  12167.355407  20795.460023    151.392405
PG27 -11984.118154  23115.745611  -4200.350718    -24.441048
PG28 -24228.364392   5516.880775   9366.111115   -248.278875
PG29 -12582.159891  -8185.122744  21861.191859   -598.054226
PG30  26247.963301  -1374.016021  -4574.120129   -388.861453
PG31 -17086.398700  10657.482430  17301.995690   -227.795016
PG32 -19274.175797  11525.746914 -13810.914309   -618.137806
PR01   3865.468191  19586.307443  15894.790869     85.657579
PR02  10270.920283   3413.958940  23145.286677    -22.976674
PR03  11624.264523 -14918.735583  17196.009917    100.330842
PR04   6758.971054 -24516.018682   2085.545080    236.845920
PR05  -1706.902922 -21131.334983 -14183.861374    131.637347
PR07 -11477.830208  15598.092143 -16531.250180     82.600221
PR08  -6378.797819  24621.628937  -1666.542956    -75.456950
PR09 -20588.999231 -11338.284311   9825.343357    187.114676
PR11   -414.116409  13458.973627  21680.175805     24.381395
PR12  15091.019237  18941.789985   8018.573320     40.242445
PR13  20409.126410  13366.552663  -7458.062449    -47.463630
PR14  13666.324699  -1742.565397 -21458.647902     26.487958
PR15   -838.111078 -14430.363686 -20994.018464     79.712540
PR16 -15082.671608 -18827.059233  -8221.901189     25.663680
PR17  23250.464657  -9331.231479   4690.915181     87.663768
PR18  12279.056208 -12371.680496  18653.743437    142.536394
PR19  -3045.892963  -9953.578343  23280.549691   -276.989819
PR20 -21622.680899   -657.499266  13483.522360   -112.976092
PR21 -23419.523993   9070.486258  -4542.426178   -101.649777
PR22 -11369.172856  12380.518884 -19159.763447    111.272413
PR24  22007.653368   -345.390550 -12869.833021    -56.209118
PR25 -23530.054554   8564.671624  -4915.671260    -36.552204
PR26  -6801.048077  24414.646630  -2988.798752    -19.147428
*  2024 05 17 20 15  0.00000000
PG02   8829.205990  13594.920611 -20619.996320   -434.438569
PG03  12517.468674  23493.395921   -856.310461    368.364937
PG04   3799.884736  18316.102492  18822.078038    363.261561
PG05  -2483.974321 -22146.363074  14202.979442   -173.062372
PG06  24273.333059  -5613.282642   9425.215891    267.978317
PG07  24500.557934   6710.747429   9044.482741   -130.987376
PG08  -3555.537709  23527.135298 -11452.802618    183.462637
PG09  13701.661223   6696.594850  21666.346379    200.049713
PG10 -15958.957327    228.339249 -21084.957690    -24.877540
PG11  14138.600901 -12243.284680  18861.223956   -664.541266
PG12  -9751.720196 -24626.680079  -2604.676447   -506.214108
PG13  12844.282487 -22421.469296  -5786.001891    651.244925
PG14  17801.287042   3657.327175 -19405.193546    403.167993
PG15    326.400811 -23995.117662 -11663.281019    160.107738
PG16  -3044.883869  20410.288241  16129.414770   -289.042390
PG17  18826.782170  -6950.053965 -17061.739093    705.443956
PG18 -24820.642633  -5939.356093   7723.145591   -612.081348
PG19  19642.845087 -14055.266751 -10769.233061    483.452961
PG20   5584.519105 -16061.885340  20500.739049    376.224226
PG21   3502.084972  14719.162667 -21433.121045    121.033490
PG22  14154.490914  -5049.478232 -21471.131386    -14.982881
PG23 -18723.769364 -11695.466126 -14888.177804    227.884067
PG24  -6685.424746 -15178.742009 -21221.870631   -470.494045
PG25 -16464.306321 -20176.649227   5541.331153    495.888241
PG26 -12147.485066  10127.847825  21169.758452    151.387278
PG27 -12375.314241  23212.464113  -1340.020065    -24.442743
PG28 -25147.461343   5271.377981   6711.974182   -248.293617
PG29 -11075.781109 -10190.776193  21823.307804   -598.053007
PG30  26614.420904  -1053.480962  -1816.884023   -388.856145
PG31 -18971.037727  10373.492660  15469.911509   -227.795074
PG32 -18527.406298   9940.515805 -15894.689085   -618.137403
PR01   3689.257045  21388.677877  13421.964564     85.658296
PR02   9730.173958   6185.889365  22795.771448    -22.975937
PR03  11104.811971 -12745.035522  19174.949019    100.331275
PR04   6497.191858 -24109.864975   5270.191594    236.847813
PR05  -1535.945448 -22717.172171 -11503.321173    131.637702
PR07 -10967.910698  13476.485165 -18610.553063     82.601682
PR08  -6146.359715  24247.694400  -4854.803935    -75.457718
PR09 -21439.540598 -11920.940739   6855.812138    187.116998
PR11  -2473.898073  11672.114514  22559.563566     24.380214
PR12  14282.847531  18092.471984  10938.794020     40.242491
PR13  21049.537253  13734.712695  -4361.838162    -47.463699
PR14  15665.276184   -131.038611 -20124.048394     26.488486
PR15   1158.432997 -12668.128551 -22087.249838     79.712110
PR16 -14256.479587 -17948.938221 -11141.085844     25.663921
PR17  23551.462694  -9631.030675   1484.944566     87.666470
PR18  14299.546681 -13178.210254  16545.947931    142.537941
PR19   -297.023146 -10774.853377  23111.577752   -276.991133
PR20 -19825.175849  -1006.670342  15994.742364   -112.975946
PR21 -23699.308492   9376.511692  -1332.558514   -101.652974
PR22 -13497.071332  13111.646147 -17192.866494    111.269800
PR24  20314.731166    103.736369 -15406.772358    -56.209932
PR25 -23881.532382   8823.144332  -1738.370056    -36.554701
PR26  -6539.427994  23887.134712  -6142.464620    -19.145686
EOF
